[{"OBJECT_NAME":"NUSAT-48 (HENRIETTA LEAVITT)","OBJECT_ID":"2024-149AG","EPOCH":"2026-03-09T19:19:17.269536","MEAN_MOTION":15.29812597,"ECCENTRICITY":0.00027538,"INCLINATION":97.3923,"RA_OF_ASC_NODE":150.8264,"ARG_OF_PERICENTER":263.3026,"MEAN_ANOMALY":96.7901,"EPHEMERIS_TYPE":0,"CLASSIFICATION_TYPE":"U","NORAD_CAT_ID":60498,"ELEMENT_SET_NO":999,"REV_AT_EPOCH":8694,"BSTAR":0.00045211745,"MEAN_MOTION_DOT":0.00012988,"MEAN_MOTION_DDOT":0},{"OBJECT_NAME":"STARLINK-32324","OBJECT_ID":"2024-202U","EPOCH":"2026-03-09T11:36:41.724000","MEAN_MOTION":15.27558638,"ECCENTRICITY":7.784e-5,"INCLINATION":43.0028,"RA_OF_ASC_NODE":239.3682,"ARG_OF_PERICENTER":238.0815,"MEAN_ANOMALY":121.9961,"EPHEMERIS_TYPE":0,"CLASSIFICATION_TYPE":"U","NORAD_CAT_ID":61863,"ELEMENT_SET_NO":999,"REV_AT_EPOCH":7529,"BSTAR":0.00023589662,"MEAN_MOTION_DOT":6.231e-5,"MEAN_MOTION_DDOT":0}]
