NUSAT-48 (HENRIETTA LE*)
1 60498U 24149AG  26068.80506098  .00012988  00000+0  45212-3 0  9999
2 60498  97.3923 150.8264 0002754 263.3026  96.7901 15.29812597 86946
STARLINK-32324          
1 61863U 24202U   26068.48381625  .00006231  00000+0  23590-3 0  9996
2 61863  43.0028 239.3682 0000778 238.0815 121.9961 15.27558638 75297
